HJ-2A                   
1 46478U 20067A   20296.46403177  .00000091  00000-0  20967-4 0  9993
2 46478  98.0461  11.6339 0018165 286.0631  73.8581 14.75719407  3739
